{
    "links": {
        "self": "http://www.neowsapp.com/rest/v1/neo/3601456?api_key=iIulBulltgU6a56xZRHN4H3l9WmuAYTsLGpBGhQ2"
    },
    "id": "3601456",
    "neo_reference_id": "3601456",
    "name": "(2012 FC1)",
    "designation": "2012 FC1",
    "nasa_jpl_url": "http://ssd.jpl.nasa.gov/sbdb.cgi?sstr=3601456",
    "absolute_magnitude_h": 24.6,
    "estimated_diameter": {
        "kilometers": {
            "estimated_diameter_min": 0.0319561887,
            "estimated_diameter_max": 0.0714562102
        },
        "meters": {
            "estimated_diameter_min": 31.9561886721,
            "estimated_diameter_max": 71.4562101727
        },
        "miles": {
            "estimated_diameter_min": 0.0198566489,
            "estimated_diameter_max": 0.0444008168
        },
        "feet": {
            "estimated_diameter_min": 104.8431420431,
            "estimated_diameter_max": 234.436392583
        }
    },
    "is_potentially_hazardous_asteroid": false,
    "close_approach_data": [
        {
            "close_approach_date": "2012-04-02",
            "close_approach_date_full": "2012-Apr-02 19:58",
            "epoch_date_close_approach": 1333396680000,
            "relative_velocity": {
                "kilometers_per_second": "8.2363379047",
                "kilometers_per_hour": "29650.816456805",
                "miles_per_hour": "18423.864258952"
            },
            "miss_distance": {
                "astronomical": "0.112783881",
                "lunar": "43.872929709",
                "kilometers": "16872228.36793347",
                "miles": "10483916.562163086"
            },
            "orbiting_body": "Earth"
        },
        {
            "close_approach_date": "2082-10-15",
            "close_approach_date_full": "2082-Oct-15 18:33",
            "epoch_date_close_approach": 3559314780000,
            "relative_velocity": {
                "kilometers_per_second": "7.9322621697",
                "kilometers_per_hour": "28556.1438110263",
                "miles_per_hour": "17743.677247468"
            },
            "miss_distance": {
                "astronomical": "1.0631394771",
                "lunar": "413.5612565919",
                "kilometers": "159043401.287073777",
                "miles": "98824986.9842490426"
            },
            "orbiting_body": "Juptr"
        },
        {
            "close_approach_date": "2165-07-03",
            "close_approach_date_full": "2165-Jul-03 09:42",
            "epoch_date_close_approach": 6169513320000,
            "relative_velocity": {
                "kilometers_per_second": "8.0436391815",
                "kilometers_per_hour": "28957.1010535776",
                "miles_per_hour": "17992.8164852077"
            },
            "miss_distance": {
                "astronomical": "1.0275669688",
                "lunar": "399.7235508632",
                "kilometers": "153721829.814836456",
                "miles": "95518315.8037808528"
            },
            "orbiting_body": "Juptr"
        }
    ],
    "orbital_data": {
        "orbit_id": "8",
        "orbit_determination_date": "2017-04-06 08:50:27",
        "first_observation_date": "2012-03-17",
        "last_observation_date": "2012-04-18",
        "data_arc_in_days": 32,
        "observations_used": 39,
        "orbit_uncertainty": "7",
        "minimum_orbit_intersection": ".110524",
        "jupiter_tisserand_invariant": "2.976",
        "epoch_osculation": "2459000.5",
        "eccentricity": ".6157747040360019",
        "semi_major_axis": "2.857871125176672",
        "inclination": "8.311736233314605",
        "ascending_node_longitude": "177.7347404077258",
        "orbital_period": "1764.665469636491",
        "perihelion_distance": "1.098066378897971",
        "perihelion_argument": "24.56616424585848",
        "aphelion_distance": "4.617675871455372",
        "perihelion_time": "2459555.432005378221",
        "mean_anomaly": "246.7912783620614",
        "mean_motion": ".2040046718170088",
        "equinox": "J2000",
        "orbit_class": {
            "orbit_class_type": "AMO",
            "orbit_class_description": "Near-Earth asteroid orbits similar to that of 1221 Amor",
            "orbit_class_range": "1.017 AU < q (perihelion) < 1.3 AU"
        }
    },
    "is_sentry_object": false
}